     2.10           N: GPS NAV DATA                         RINEX VERSION / TYPE
teqc  2011Oct11     IGN-E (SPG)         20150127 03:02:52UTCPGM / RUN BY / DATE
Linux 2.4.21-27.ELsmp|Opteron|gcc -static|Linux x86_64|=+   COMMENT
                                                            END OF HEADER
25 15  1 27  4  0  0.0 5.587935447693D-07-2.614797267597D-12 0.000000000000D+00
    4.000000000000D+01-4.784375000000D+01 4.140886744608D-09-2.443992488634D+00
   -2.494081854820D-06 4.079694394022D-03 8.124858140945D-06 5.153732448578D+03
    1.872000000000D+05 2.421438694000D-08-1.898411019936D+00-8.381903171539D-08
    9.775973983413D-01 2.318750000000D+02 6.583360961695D-01-7.879256358478D-09
    6.071681352138D-12 1.000000000000D+00 1.829000000000D+03 0.000000000000D+00
    2.000000000000D+00 0.000000000000D+00 5.122274160385D-09 4.000000000000D+01
    1.800300000000D+05
16 15  1 27  4  0  0.0-1.615765504539D-04 3.183231456205D-12 0.000000000000D+00
    8.700000000000D+01-3.068750000000D+01 3.878375842703D-09 2.415783931692D+00
   -1.585111021996D-06 7.990847225301D-03 9.007751941681D-06 5.153740400314D+03
    1.872000000000D+05-1.899898052216D-07-1.834520464695D+00 2.793967723846D-08
    9.895545358555D-01 2.234375000000D+02 2.323408014927D-01-7.707106952637D-09
   -1.214336270428D-11 1.000000000000D+00 1.829000000000D+03 0.000000000000D+00
    2.000000000000D+00 0.000000000000D+00-1.024454832077D-08 8.700000000000D+01
    1.800300000000D+05
18 15  1 27  4  0  0.0 3.751735202968D-04 2.728484105319D-12 0.000000000000D+00
    3.400000000000D+01-8.687500000000D+00 5.059496377413D-09 2.975697680495D+00
   -4.805624485016D-07 1.562740444206D-02 1.014955341816D-05 5.153757297516D+03
    1.872000000000D+05 8.195638656616D-08 1.227709260527D+00-1.080334186554D-07
    9.250062394799D-01 1.622187500000D+02-1.994608276218D+00-7.974618299045D-09
   -1.085759537833D-10 1.000000000000D+00 1.829000000000D+03 0.000000000000D+00
    2.000000000000D+00 0.000000000000D+00-1.117587089539D-08 3.400000000000D+01
    1.800300000000D+05
 8 15  1 27  4  0  0.0 1.731049269438D-05 1.136868377216D-13 0.000000000000D+00
    7.500000000000D+01-7.312500000000D+00 4.058026359388D-09 1.797629581116D-01
   -3.073364496231D-07 1.479070831556D-02 5.474314093590D-06 5.152213294983D+03
    1.872000000000D+05 8.754432201385D-08-2.815027277940D+00 1.620501279831D-07
    9.952396315426D-01 2.946875000000D+02-2.671085378730D+00-8.142482244011D-09
   -1.775073976695D-10 1.000000000000D+00 1.829000000000D+03 0.000000000000D+00
    2.800000000000D+00 1.000000000000D+00-5.122274160385D-09 7.500000000000D+01
    1.800300000000D+05
19 15  1 27  4  0  0.0-4.982165992260D-04-1.477928890381D-12 0.000000000000D+00
    5.800000000000D+01-3.750000000000D+00 4.566976130604D-09 6.695973762184D-01
    2.607703208923D-08 1.088490069378D-02 7.038936018944D-06 5.153688270569D+03
    1.872000000000D+05-3.166496753693D-08-7.557647944658D-01 2.104789018631D-07
    9.683434423169D-01 2.455312500000D+02 5.167583252413D-01-8.230342629645D-09
    1.471489874394D-10 1.000000000000D+00 1.829000000000D+03 0.000000000000D+00
    2.000000000000D+00 0.000000000000D+00-1.490116119385D-08 5.800000000000D+01
    1.800300000000D+05
21 15  1 27  4  0  0.0-4.100063815713D-04-4.206412995700D-12 0.000000000000D+00
    8.500000000000D+01-4.156250000000D+01 5.157714699777D-09-2.304663035540D+00
   -2.263113856316D-06 2.210010471754D-02 5.817040801048D-06 5.153621437073D+03
    1.872000000000D+05 2.700835466385D-07 1.839701978629D-01-4.097819328308D-08
    9.337071305469D-01 2.462187500000D+02-1.955356163861D+00-8.094622749866D-09
    9.000374751045D-11 1.000000000000D+00 1.829000000000D+03 0.000000000000D+00
    4.000000000000D+00 0.000000000000D+00-1.164153218269D-08 8.500000000000D+01
    1.800300000000D+05
22 15  1 27  4  0  0.0 3.116652369499D-04 4.092726157978D-12 0.000000000000D+00
    6.700000000000D+01 1.750000000000D+00 5.220217591528D-09 2.489488692305D+00
    8.195638656616D-08 7.406410295516D-03 1.001916825771D-05 5.153706823349D+03
    1.872000000000D+05 6.146728992462D-08 1.229114048094D+00-9.313225746155D-08
    9.228066426693D-01 1.661562500000D+02-2.069881526394D+00-8.219985581093D-09
   -8.536069767695D-11 1.000000000000D+00 1.829000000000D+03 0.000000000000D+00
    2.800000000000D+00 0.000000000000D+00-1.769512891769D-08 6.700000000000D+01
    1.800300000000D+05
27 15  1 27  4  0  0.0 4.716450348496D-05 2.614797267597D-12 0.000000000000D+00
    5.400000000000D+01-3.562500000000D+00 4.560190003389D-09 1.539685169222D+00
   -5.215406417847D-08 1.885810634121D-03 7.430091500282D-06 5.153687421799D+03
    1.872000000000D+05 9.313225746155D-09-8.528324679869D-01 5.774199962616D-08
    9.660586129732D-01 2.378750000000D+02 1.538509192283D-01-8.137124751784D-09
    2.217949574002D-10 1.000000000000D+00 1.829000000000D+03 0.000000000000D+00
    2.000000000000D+00 0.000000000000D+00 1.862645149231D-09 5.400000000000D+01
    1.800300000000D+05
29 15  1 27  4  0  0.0 5.884119309485D-04 2.273736754432D-12 0.000000000000D+00
    1.040000000000D+02-8.718750000000D+00 4.314108181802D-09-1.967685997311D+00
   -5.345791578293D-07 1.277321716771D-03 7.702037692070D-06 5.153564573288D+03
    1.872000000000D+05-5.774199962616D-08-7.965242127621D-01-1.862645149231D-08
    9.720480409712D-01 2.345000000000D+02-8.631737232446D-01-7.971046045441D-09
    2.221521161472D-10 1.000000000000D+00 1.829000000000D+03 0.000000000000D+00
    2.000000000000D+00 0.000000000000D+00-9.778887033463D-09 1.040000000000D+02
    1.800300000000D+05
31 15  1 27  4  0  0.0 3.246385604143D-04-7.958078640513D-13 0.000000000000D+00
    3.800000000000D+01-1.156250000000D+00 4.416969900944D-09-1.380420628014D+00
   -2.831220626831D-07 8.316143997945D-03 5.351379513741D-06 5.153719779968D+03
    1.872000000000D+05-5.401670932770D-08-2.912547424708D+00-1.713633537292D-07
    9.766034800949D-01 2.876250000000D+02-5.646323896054D-01-8.249986471753D-09
   -3.214419702635D-11 1.000000000000D+00 1.829000000000D+03 0.000000000000D+00
    2.000000000000D+00 0.000000000000D+00-1.350417733192D-08 3.800000000000D+01
    1.800300000000D+05
 7 15  1 27  4  0  0.0 4.350724630058D-04 3.296918293927D-12 0.000000000000D+00
    7.000000000000D+01-4.343750000000D+00 4.496973016188D-09-1.281737901711D+00
   -2.663582563400D-07 7.983447867446D-03 4.658475518227D-06 5.153738323212D+03
    1.872000000000D+05 7.636845111847D-08-2.919764834919D+00-4.842877388000D-08
    9.716999966680D-01 2.923437500000D+02-2.751614507355D+00-8.238200344124D-09
   -4.928776831115D-11 1.000000000000D+00 1.829000000000D+03 0.000000000000D+00
    2.000000000000D+00 0.000000000000D+00-1.117587089539D-08 7.000000000000D+01
    1.819500000000D+05
 4 15  1 27  4  0  0.0-6.235204637051D-06-5.684341886081D-13 0.000000000000D+00
    4.600000000000D+01-3.731250000000D+01 5.303792516287D-09-9.045285594395D-01
   -1.871958374977D-06 1.100078132004D-02 6.645917892456D-06 5.153730897903D+03
    1.872000000000D+05-7.450580596924D-09 1.838864955421D-01 2.477318048477D-07
    9.397172193370D-01 2.390000000000D+02 1.051185795525D+00-8.576785504033D-09
   -1.571494046004D-10 1.000000000000D+00 1.829000000000D+03 0.000000000000D+00
    2.000000000000D+00 0.000000000000D+00-6.519258022308D-09 4.600000000000D+01
    1.834800000000D+05
